[{"OBJECT_NAME":"FLOCK 4H-17","OBJECT_ID":"2025-276BG","EPOCH":"2026-03-09T12:13:32.774304","MEAN_MOTION":15.19779499,"ECCENTRICITY":0.00021349,"INCLINATION":97.4298,"RA_OF_ASC_NODE":143.9091,"ARG_OF_PERICENTER":323.7123,"MEAN_ANOMALY":36.3967,"EPHEMERIS_TYPE":0,"CLASSIFICATION_TYPE":"U","NORAD_CAT_ID":66720,"ELEMENT_SET_NO":999,"REV_AT_EPOCH":1529,"BSTAR":0.00077231718,"MEAN_MOTION_DOT":0.00016485,"MEAN_MOTION_DDOT":0},{"OBJECT_NAME":"TRANSPORTER-15 OBJECT CY","OBJECT_ID":"2025-276CY","EPOCH":"2026-03-09T16:54:57.446784","MEAN_MOTION":15.1927389,"ECCENTRICITY":8.727e-5,"INCLINATION":97.4254,"RA_OF_ASC_NODE":144.0461,"ARG_OF_PERICENTER":100.2944,"MEAN_ANOMALY":259.8389,"EPHEMERIS_TYPE":0,"CLASSIFICATION_TYPE":"U","NORAD_CAT_ID":66760,"ELEMENT_SET_NO":999,"REV_AT_EPOCH":1532,"BSTAR":0.00030148075,"MEAN_MOTION_DOT":6.292e-5,"MEAN_MOTION_DDOT":0}]
